{
  "type": "FeatureCollection",
  "features": [
    {
      "type": "Feature",
      "properties": {
        "norad_id": 66583,
        "name": "STARLINK-35941",
        "group": "last-30-days",
        "lat": -39.671605517181284,
        "lon": 20.795863038207248,
        "alt_km": 417.0211717087968,
        "timestamp": "2025-12-09T20:37:08.056385+00:00",
        "meta_object_name": "STARLINK-35941",
        "meta_object_id": "2025-268AC",
        "meta_epoch": "2025-12-09T14:00:01.999872",
        "meta_mean_motion": 15.50640345,
        "meta_eccentricity": 0.00020103,
        "meta_inclination": 43.0004,
        "meta_ra_of_asc_node": 139.533,
        "meta_arg_of_pericenter": 267.928,
        "meta_mean_anomaly": 240.2967,
        "meta_ephemeris_type": 0,
        "meta_classification_type": "U",
        "meta_norad_cat_id": 66583,
        "meta_element_set_no": 999,
        "meta_rev_at_epoch": 416,
        "meta_bstar": -0.0024708619,
        "meta_mean_motion_dot": -0.00143001,
        "meta_mean_motion_ddot": 0,
        "tle_line1": "1 66583U 25268AC  25343.58335648 -.00143001  00000+0 -24709-2 0  9994",
        "tle_line2": "2 66583  43.0004 139.5330 0002010 267.9280 240.2967 15.50640345  4166"
      },
      "geometry": {
        "type": "Point",
        "coordinates": [
          20.795863038207248,
          -39.671605517181284
        ]
      }
    },
    {
      "type": "Feature",
      "properties": {
        "norad_id": 66584,
        "name": "STARLINK-35939",
        "group": "last-30-days",
        "lat": -40.24322553577405,
        "lon": 23.179600901509176,
        "alt_km": 417.08156521371257,
        "timestamp": "2025-12-09T20:37:08.056401+00:00",
        "meta_object_name": "STARLINK-35939",
        "meta_object_id": "2025-268AD",
        "meta_epoch": "2025-12-09T14:00:01.999872",
        "meta_mean_motion": 15.5064767,
        "meta_eccentricity": 0.00019158,
        "meta_inclination": 43.0003,
        "meta_ra_of_asc_node": 139.5285,
        "meta_arg_of_pericenter": 266.3181,
        "meta_mean_anomaly": 243.8222,
        "meta_ephemeris_type": 0,
        "meta_classification_type": "U",
        "meta_norad_cat_id": 66584,
        "meta_element_set_no": 999,
        "meta_rev_at_epoch": 416,
        "meta_bstar": -0.0027166754,
        "meta_mean_motion_dot": -0.00156956,
        "meta_mean_motion_ddot": 0,
        "tle_line1": "1 66584U 25268AD  25343.58335648 -.00156956  00000+0 -27167-2 0  9999",
        "tle_line2": "2 66584  43.0003 139.5285 0001915 266.3181 243.8222 15.50647670  4162"
      },
      "geometry": {
        "type": "Point",
        "coordinates": [
          23.179600901509176,
          -40.24322553577405
        ]
      }
    },
    {
      "type": "Feature",
      "properties": {
        "norad_id": 66585,
        "name": "STARLINK-35963",
        "group": "last-30-days",
        "lat": -40.76043476475948,
        "lon": 25.57847325335988,
        "alt_km": 417.32325345631034,
        "timestamp": "2025-12-09T20:37:08.056414+00:00",
        "meta_object_name": "STARLINK-35963",
        "meta_object_id": "2025-268AE",
        "meta_epoch": "2025-12-09T14:00:01.999872",
        "meta_mean_motion": 15.50580914,
        "meta_eccentricity": 0.00017282,
        "meta_inclination": 43.0007,
        "meta_ra_of_asc_node": 139.5248,
        "meta_arg_of_pericenter": 277.7702,
        "meta_mean_anomaly": 234.3094,
        "meta_ephemeris_type": 0,
        "meta_classification_type": "U",
        "meta_norad_cat_id": 66585,
        "meta_element_set_no": 999,
        "meta_rev_at_epoch": 416,
        "meta_bstar": -0.00078439994,
        "meta_mean_motion_dot": -0.00046093,
        "meta_mean_motion_ddot": 0,
        "tle_line1": "1 66585U 25268AE  25343.58335648 -.00046093  00000+0 -78440-3 0  9991",
        "tle_line2": "2 66585  43.0007 139.5248 0001728 277.7702 234.3094 15.50580914  4162"
      },
      "geometry": {
        "type": "Point",
        "coordinates": [
          25.57847325335988,
          -40.76043476475948
        ]
      }
    },
    {
      "type": "Feature",
      "properties": {
        "norad_id": 66586,
        "name": "TJS-21",
        "group": "last-30-days",
        "lat": 57.08544673753406,
        "lon": -146.21632617448438,
        "alt_km": 33296.82192745235,
        "timestamp": "2025-12-09T20:37:08.056426+00:00",
        "meta_object_name": "TJS-21",
        "meta_object_id": "2025-269A",
        "meta_epoch": "2025-12-09T05:37:30.492480",
        "meta_mean_motion": 2.0056442,
        "meta_eccentricity": 0.68055916,
        "meta_inclination": 63.2636,
        "meta_ra_of_asc_node": 162.6946,
        "meta_arg_of_pericenter": 269.796,
        "meta_mean_anomaly": 18.652,
        "meta_ephemeris_type": 0,
        "meta_classification_type": "U",
        "meta_norad_cat_id": 66586,
        "meta_element_set_no": 999,
        "meta_rev_at_epoch": 36,
        "meta_bstar": -0.040942106,
        "meta_mean_motion_dot": 1.078e-05,
        "meta_mean_motion_ddot": 0,
        "tle_line1": "1 66586U 25269A   25343.23438070  .00001078  00000+0 -40942-1 0  9995",
        "tle_line2": "2 66586  63.2636 162.6946 6805591 269.7960  18.6520  2.00564420   360"
      },
      "geometry": {
        "type": "Point",
        "coordinates": [
          -146.21632617448438,
          57.08544673753406
        ]
      }
    },
    {
      "type": "Feature",
      "properties": {
        "norad_id": 66587,
        "name": "CZ-3B R/B",
        "group": "last-30-days",
        "lat": 10.710417189403984,
        "lon": 178.96473259343557,
        "alt_km": 23769.57240780046,
        "timestamp": "2025-12-09T20:37:08.056440+00:00",
        "meta_object_name": "CZ-3B R/B",
        "meta_object_id": "2025-269B",
        "meta_epoch": "2025-12-08T20:16:41.020608",
        "meta_mean_motion": 2.02868931,
        "meta_eccentricity": 0.7519771,
        "meta_inclination": 51.3469,
        "meta_ra_of_asc_node": 170.5472,
        "meta_arg_of_pericenter": 228.0184,
        "meta_mean_anomaly": 37.9662,
        "meta_ephemeris_type": 0,
        "meta_classification_type": "U",
        "meta_norad_cat_id": 66587,
        "meta_element_set_no": 999,
        "meta_rev_at_epoch": 37,
        "meta_bstar": 0.001255,
        "meta_mean_motion_dot": 0.00050168,
        "meta_mean_motion_ddot": 4.2215e-07,
        "tle_line1": "1 66587U 25269B   25342.84491922  .00050168  42215-6  12550-2 0  9996",
        "tle_line2": "2 66587  51.3469 170.5472 7519771 228.0184  37.9662  2.02868931   372"
      },
      "geometry": {
        "type": "Point",
        "coordinates": [
          178.96473259343557,
          10.710417189403984
        ]
      }
    },
    {
      "type": "Feature",
      "properties": {
        "norad_id": 66588,
        "name": "STARLINK-36076",
        "group": "last-30-days",
        "lat": 35.0496201089087,
        "lon": -19.239068806389778,
        "alt_km": 399.47530309946615,
        "timestamp": "2025-12-09T20:37:08.056454+00:00",
        "meta_object_name": "STARLINK-36076",
        "meta_object_id": "2025-270A",
        "meta_epoch": "2025-12-09T14:00:01.999872",
        "meta_mean_motion": 15.55501406,
        "meta_eccentricity": 0.00018556,
        "meta_inclination": 42.9994,
        "meta_ra_of_asc_node": 211.2202,
        "meta_arg_of_pericenter": 256.3699,
        "meta_mean_anomaly": 120.7228,
        "meta_ephemeris_type": 0,
        "meta_classification_type": "U",
        "meta_norad_cat_id": 66588,
        "meta_element_set_no": 999,
        "meta_rev_at_epoch": 389,
        "meta_bstar": -0.031758303,
        "meta_mean_motion_dot": -0.01994044,
        "meta_mean_motion_ddot": 0,
        "tle_line1": "1 66588U 25270A   25343.58335648 -.01994044  00000+0 -31758-1 0  9995",
        "tle_line2": "2 66588  42.9994 211.2202 0001855 256.3699 120.7228 15.55501406  3895"
      },
      "geometry": {
        "type": "Point",
        "coordinates": [
          -19.239068806389778,
          35.0496201089087
        ]
      }
    },
    {
      "type": "Feature",
      "properties": {
        "norad_id": 66589,
        "name": "STARLINK-35447",
        "group": "last-30-days",
        "lat": 33.25638366160738,
        "lon": -15.143762339129301,
        "alt_km": 399.67665231598403,
        "timestamp": "2025-12-09T20:37:08.056465+00:00",
        "meta_object_name": "STARLINK-35447",
        "meta_object_id": "2025-270B",
        "meta_epoch": "2025-12-09T14:00:01.999872",
        "meta_mean_motion": 15.55505694,
        "meta_eccentricity": 0.00016852,
        "meta_inclination": 42.9992,
        "meta_ra_of_asc_node": 211.2105,
        "meta_arg_of_pericenter": 259.9629,
        "meta_mean_anomaly": 120.962,
        "meta_ephemeris_type": 0,
        "meta_classification_type": "U",
        "meta_norad_cat_id": 66589,
        "meta_element_set_no": 999,
        "meta_rev_at_epoch": 400,
        "meta_bstar": -0.031842383,
        "meta_mean_motion_dot": -0.01998951,
        "meta_mean_motion_ddot": 0,
        "tle_line1": "1 66589U 25270B   25343.58335648 -.01998951  00000+0 -31842-1 0  9991",
        "tle_line2": "2 66589  42.9992 211.2105 0001685 259.9629 120.9620 15.55505694  4004"
      },
      "geometry": {
        "type": "Point",
        "coordinates": [
          -15.143762339129301,
          33.25638366160738
        ]
      }
    }
  ]
}